[{"OBJECT_NAME":"STARLINK-2525","OBJECT_ID":"2021-040BG","EPOCH":"2026-03-09T21:41:38.769216","MEAN_MOTION":15.30214878,"ECCENTRICITY":0.00011336,"INCLINATION":53.1603,"RA_OF_ASC_NODE":192.9438,"ARG_OF_PERICENTER":85.7988,"MEAN_ANOMALY":274.3142,"EPHEMERIS_TYPE":0,"CLASSIFICATION_TYPE":"U","NORAD_CAT_ID":48482,"ELEMENT_SET_NO":999,"REV_AT_EPOCH":26649,"BSTAR":0.00016690381,"MEAN_MOTION_DOT":4.589e-5,"MEAN_MOTION_DDOT":0},{"OBJECT_NAME":"OBJECT AD","OBJECT_ID":"2023-085AD","EPOCH":"2026-03-09T21:41:29.115744","MEAN_MOTION":15.31779154,"ECCENTRICITY":0.00101154,"INCLINATION":97.4841,"RA_OF_ASC_NODE":180.2223,"ARG_OF_PERICENTER":77.5993,"MEAN_ANOMALY":282.638,"EPHEMERIS_TYPE":0,"CLASSIFICATION_TYPE":"U","NORAD_CAT_ID":57031,"ELEMENT_SET_NO":999,"REV_AT_EPOCH":15156,"BSTAR":0.00068352515,"MEAN_MOTION_DOT":0.00020961,"MEAN_MOTION_DDOT":0}]
